MALLIGYONG-1            
1 58400U 23179A   24253.88926104  .00068180  00000+0  30505-2 0  9990
2 58400  97.3856 139.3096 0009287 131.1963 292.0448 15.20982430 44605
